{"type":"FeatureCollection","crs":{"type":"name","properties":{"name":"EPSG:4326"}},"features":[{"type":"Feature","id":3581,"geometry":{"type":"Point","coordinates":[-83.6412359996405,41.3973690001484]},"properties":{"FID":3581,"OBJECTID":65676,"Plant_Code":55262,"Plant_Name":"Bowling Green Generating Station","Utility_ID":40577,"Utility_Na":"American Mun Power-Ohio, Inc","sector_nam":"Electric Utility","Street_Add":"1225 North College Drive","City":"Bowling Green","County":"Wood","State":"Ohio","Zip":43402,"PrimSource":"natural gas","source_des":"Natural Gas = 38 MW","tech_desc":"Natural Gas Fired Combustion Turbine","Install_MW":49.5,"Total_MW":38,"Bat_MW":0,"Bio_MW":0,"Coal_MW":0,"Geo_MW":0,"Hydro_MW":0,"HydroPS_MW":0,"NG_MW":38,"Nuclear_MW":0,"Crude_MW":0,"Solar_MW":0,"Wind_MW":0,"Other_MW":0,"Source":"EIA-860, EIA-860M and EIA-923","Period":"202502","Longitude":-83.641236,"Latitude":41.397369}},{"type":"Feature","id":12827,"geometry":{"type":"Point","coordinates":[-83.3690089998218,41.4587000002756]},"properties":{"FID":12827,"OBJECTID":74300,"Plant_Code":66444,"Plant_Name":"Woodville RTO BTM","Utility_ID":40577,"Utility_Na":"American Mun Power-Ohio, Inc","sector_nam":"Electric Utility","Street_Add":"530 Lime Street","City":"Woodville","County":"Sandusky","State":"Ohio","Zip":43469,"PrimSource":"petroleum","source_des":"Petroleum = 2.7 MW","tech_desc":"Petroleum Liquids","Install_MW":2.7,"Total_MW":2.7,"Bat_MW":0,"Bio_MW":0,"Coal_MW":0,"Geo_MW":0,"Hydro_MW":0,"HydroPS_MW":0,"NG_MW":0,"Nuclear_MW":0,"Crude_MW":2.7,"Solar_MW":0,"Wind_MW":0,"Other_MW":0,"Source":"EIA-860, EIA-860M and EIA-923","Period":"202502","Longitude":-83.369009,"Latitude":41.4587}},{"type":"Feature","id":12718,"geometry":{"type":"Point","coordinates":[-83.3670000003338,41.4659999998074]},"properties":{"FID":12718,"OBJECTID":74191,"Plant_Code":66261,"Plant_Name":"Martin Marietta Wind Project","Utility_ID":65369,"Utility_Na":"OEE XXXIII LLC","sector_nam":"IPP Non-CHP","Street_Add":"755 Lime Road","City":"Woodville","County":"Sandusky","State":"Ohio","Zip":43402,"PrimSource":"wind","source_des":"Wind = 4.5 MW","tech_desc":"Onshore Wind Turbine","Install_MW":4.5,"Total_MW":4.5,"Bat_MW":0,"Bio_MW":0,"Coal_MW":0,"Geo_MW":0,"Hydro_MW":0,"HydroPS_MW":0,"NG_MW":0,"Nuclear_MW":0,"Crude_MW":0,"Solar_MW":0,"Wind_MW":4.5,"Other_MW":0,"Source":"EIA-860, EIA-860M and EIA-923","Period":"202502","Longitude":-83.367,"Latitude":41.466}},{"type":"Feature","id":6713,"geometry":{"type":"Point","coordinates":[-83.443663999955,41.6679280000303]},"properties":{"FID":6713,"OBJECTID":68808,"Plant_Code":59764,"Plant_Name":"Oregon Clean Energy Center","Utility_ID":59534,"Utility_Na":"Oregon Clean Energy Center","sector_nam":"IPP Non-CHP","Street_Add":"816 North Lallendorf Road","City":"Oregon","County":"Lucas","State":"Ohio","Zip":43616,"PrimSource":"natural gas","source_des":"Natural Gas = 847.6 MW, Petroleum = 1.5 MW","tech_desc":"Natural Gas Fired Combined Cycle; Petroleum Liquids;","Install_MW":1061.5,"Total_MW":849.1,"Bat_MW":0,"Bio_MW":0,"Coal_MW":0,"Geo_MW":0,"Hydro_MW":0,"HydroPS_MW":0,"NG_MW":847.6,"Nuclear_MW":0,"Crude_MW":1.5,"Solar_MW":0,"Wind_MW":0,"Other_MW":0,"Source":"EIA-860, EIA-860M and EIA-923","Period":"202502","Longitude":-83.443664,"Latitude":41.667928}},{"type":"Feature","id":7019,"geometry":{"type":"Point","coordinates":[-83.6413810003037,41.0961109998776]},"properties":{"FID":7019,"OBJECTID":69115,"Plant_Code":60128,"Plant_Name":"Zephyr Wind","Utility_ID":59905,"Utility_Na":"OEE XIX, LLC","sector_nam":"Industrial Non-CHP","Street_Add":"12385 Township Road 215","City":"Findlay","County":"Hancock","State":"Ohio","Zip":45840,"PrimSource":"wind","source_des":"Wind = 4.5 MW","tech_desc":"Onshore Wind Turbine","Install_MW":4.5,"Total_MW":4.5,"Bat_MW":0,"Bio_MW":0,"Coal_MW":0,"Geo_MW":0,"Hydro_MW":0,"HydroPS_MW":0,"NG_MW":0,"Nuclear_MW":0,"Crude_MW":0,"Solar_MW":0,"Wind_MW":4.5,"Other_MW":0,"Source":"EIA-860, EIA-860M and EIA-923","Period":"202502","Longitude":-83.641381,"Latitude":41.096111}},{"type":"Feature","id":3630,"geometry":{"type":"Point","coordinates":[-83.4598300000613,41.4772400000515]},"properties":{"FID":3630,"OBJECTID":65726,"Plant_Code":55348,"Plant_Name":"Troy Energy LLC","Utility_ID":56533,"Utility_Na":"Troy Energy LLC","sector_nam":"IPP Non-CHP","Street_Add":"22379 Pemberville Road","City":"Luckey","County":"Wood","State":"Ohio","Zip":43443,"PrimSource":"natural gas","source_des":"Natural Gas = 707 MW","tech_desc":"Natural Gas Fired Combustion Turbine","Install_MW":795.6,"Total_MW":707,"Bat_MW":0,"Bio_MW":0,"Coal_MW":0,"Geo_MW":0,"Hydro_MW":0,"HydroPS_MW":0,"NG_MW":707,"Nuclear_MW":0,"Crude_MW":0,"Solar_MW":0,"Wind_MW":0,"Other_MW":0,"Source":"EIA-860, EIA-860M and EIA-923","Period":"202502","Longitude":-83.45983,"Latitude":41.47724}},{"type":"Feature","id":10640,"geometry":{"type":"Point","coordinates":[-83.6112309998314,41.3825889998727]},"properties":{"FID":10640,"OBJECTID":73936,"Plant_Code":65951,"Plant_Name":"Bowling Green Energy Storage Project","Utility_ID":65129,"Utility_Na":"VESI 21 LLC","sector_nam":"IPP Non-CHP","Street_Add":"901 Dunbridge St.","City":"Bowling Green","County":"Wood","State":"Ohio","Zip":43402,"PrimSource":"batteries","source_des":"Battery = 12 MW","tech_desc":"Batteries","Install_MW":12,"Total_MW":12,"Bat_MW":12,"Bio_MW":0,"Coal_MW":0,"Geo_MW":0,"Hydro_MW":0,"HydroPS_MW":0,"NG_MW":0,"Nuclear_MW":0,"Crude_MW":0,"Solar_MW":0,"Wind_MW":0,"Other_MW":0,"Source":"EIA-860, EIA-860M and EIA-923","Period":"202502","Longitude":-83.611231,"Latitude":41.382589}},{"type":"Feature","id":9146,"geometry":{"type":"Point","coordinates":[-83.637777999633,41.0930779998335]},"properties":{"FID":9146,"OBJECTID":71240,"Plant_Code":62653,"Plant_Name":"Zephyr Wind Project - 2.0","Utility_ID":62128,"Utility_Na":"OEE XXX LLC","sector_nam":"Industrial Non-CHP","Street_Add":"12385 Township Road 215","City":"Findlay","County":"Hancock","State":"Ohio","Zip":45840,"PrimSource":"wind","source_des":"Wind = 4.5 MW","tech_desc":"Onshore Wind Turbine","Install_MW":4.5,"Total_MW":4.5,"Bat_MW":0,"Bio_MW":0,"Coal_MW":0,"Geo_MW":0,"Hydro_MW":0,"HydroPS_MW":0,"NG_MW":0,"Nuclear_MW":0,"Crude_MW":0,"Solar_MW":0,"Wind_MW":4.5,"Other_MW":0,"Source":"EIA-860, EIA-860M and EIA-923","Period":"202502","Longitude":-83.637778,"Latitude":41.093078}},{"type":"Feature","id":13133,"geometry":{"type":"Point","coordinates":[-83.7878079995996,41.5863760002993]},"properties":{"FID":13133,"OBJECTID":75270,"Plant_Code":67967,"Plant_Name":"Toledo Air National Guard","Utility_ID":66518,"Utility_Na":"180th Fighter Wing","sector_nam":"Commercial Non-CHP","Street_Add":"2660 South Eber Road","City":"Swanton","County":"Lucas","State":"Ohio","Zip":43558,"PrimSource":"solar","source_des":"Solar = 1.5 MW","tech_desc":"Solar Photovoltaic","Install_MW":1.5,"Total_MW":1.5,"Bat_MW":0,"Bio_MW":0,"Coal_MW":0,"Geo_MW":0,"Hydro_MW":0,"HydroPS_MW":0,"NG_MW":0,"Nuclear_MW":0,"Crude_MW":0,"Solar_MW":1.5,"Wind_MW":0,"Other_MW":0,"Source":"EIA-860, EIA-860M and EIA-923","Period":"202502","Longitude":-83.787808,"Latitude":41.586376}},{"type":"Feature","id":8448,"geometry":{"type":"Point","coordinates":[-83.6441310003066,41.0843289999748]},"properties":{"FID":8448,"OBJECTID":70144,"Plant_Code":61356,"Plant_Name":"Valfilm Wind Project","Utility_ID":60996,"Utility_Na":"OEE XXV LLC","sector_nam":"Industrial Non-CHP","Street_Add":"12325 Township Road 99","City":"Findlay","County":"Hancock","State":"Ohio","Zip":45840,"PrimSource":"wind","source_des":"Wind = 3 MW","tech_desc":"Onshore Wind Turbine","Install_MW":3,"Total_MW":3,"Bat_MW":0,"Bio_MW":0,"Coal_MW":0,"Geo_MW":0,"Hydro_MW":0,"HydroPS_MW":0,"NG_MW":0,"Nuclear_MW":0,"Crude_MW":0,"Solar_MW":0,"Wind_MW":3,"Other_MW":0,"Source":"EIA-860, EIA-860M and EIA-923","Period":"202502","Longitude":-83.644131,"Latitude":41.084329}},{"type":"Feature","id":3980,"geometry":{"type":"Point","coordinates":[-83.7383000000505,41.3786000000075]},"properties":{"FID":3980,"OBJECTID":66076,"Plant_Code":56226,"Plant_Name":"Bowling Green Wind","Utility_ID":40577,"Utility_Na":"American Mun Power-Ohio, Inc","sector_nam":"Electric Utility","Street_Add":"Rt 6 W of Interstate 75","City":"Bowling Green","County":"Wood","State":"Ohio","Zip":43402,"PrimSource":"wind","source_des":"Wind = 7.2 MW","tech_desc":"Onshore Wind Turbine","Install_MW":7.2,"Total_MW":7.2,"Bat_MW":0,"Bio_MW":0,"Coal_MW":0,"Geo_MW":0,"Hydro_MW":0,"HydroPS_MW":0,"NG_MW":0,"Nuclear_MW":0,"Crude_MW":0,"Solar_MW":0,"Wind_MW":7.2,"Other_MW":0,"Source":"EIA-860, EIA-860M and EIA-923","Period":"202502","Longitude":-83.7383,"Latitude":41.3786}},{"type":"Feature","id":10798,"geometry":{"type":"Point","coordinates":[-83.5572440002757,41.6148789998872]},"properties":{"FID":10798,"OBJECTID":74094,"Plant_Code":66140,"Plant_Name":"PNA Rossford Solar Array","Utility_ID":60571,"Utility_Na":"AEP Onsite Partners, LLC","sector_nam":"IPP Non-CHP","Street_Add":"140 Dixie Hwy.","City":"Rossford","County":"Wood","State":"Ohio","Zip":43460,"PrimSource":"solar","source_des":"Solar = 1.4 MW","tech_desc":"Solar Photovoltaic","Install_MW":1.4,"Total_MW":1.4,"Bat_MW":0,"Bio_MW":0,"Coal_MW":0,"Geo_MW":0,"Hydro_MW":0,"HydroPS_MW":0,"NG_MW":0,"Nuclear_MW":0,"Crude_MW":0,"Solar_MW":1.4,"Wind_MW":0,"Other_MW":0,"Source":"EIA-860, EIA-860M and EIA-923","Period":"202502","Longitude":-83.557244,"Latitude":41.614879}},{"type":"Feature","id":10303,"geometry":{"type":"Point","coordinates":[-83.888514999965,41.9826160003238]},"properties":{"FID":10303,"OBJECTID":72799,"Plant_Code":64496,"Plant_Name":"Hendershot Solar, LLC","Utility_ID":64143,"Utility_Na":"Hendershot Solar, LLC","sector_nam":"IPP Non-CHP","Street_Add":"6620 Hendershot Hwy","City":"Tecumseh","County":"Lenawee","State":"Michigan","Zip":49286,"PrimSource":"solar","source_des":"Solar = 2 MW","tech_desc":"Solar Photovoltaic","Install_MW":2,"Total_MW":2,"Bat_MW":0,"Bio_MW":0,"Coal_MW":0,"Geo_MW":0,"Hydro_MW":0,"HydroPS_MW":0,"NG_MW":0,"Nuclear_MW":0,"Crude_MW":0,"Solar_MW":2,"Wind_MW":0,"Other_MW":0,"Source":"EIA-860, EIA-860M and EIA-923","Period":"202502","Longitude":-83.888515,"Latitude":41.982616}},{"type":"Feature","id":6937,"geometry":{"type":"Point","coordinates":[-83.5363999999711,41.6447000002513]},"properties":{"FID":6937,"OBJECTID":69033,"Plant_Code":60038,"Plant_Name":"Owens Corning Headquarters","Utility_ID":58491,"Utility_Na":"Luminace Solar Holding, LLC","sector_nam":"IPP Non-CHP","Street_Add":"One Owens Corning Parkway","City":"Toledo","County":"Lucas","State":"Ohio","Zip":43659,"PrimSource":"solar","source_des":"Solar = 2.1 MW","tech_desc":"Solar Photovoltaic","Install_MW":2.1,"Total_MW":2.1,"Bat_MW":0,"Bio_MW":0,"Coal_MW":0,"Geo_MW":0,"Hydro_MW":0,"HydroPS_MW":0,"NG_MW":0,"Nuclear_MW":0,"Crude_MW":0,"Solar_MW":2.1,"Wind_MW":0,"Other_MW":0,"Source":"EIA-860, EIA-860M and EIA-923","Period":"202502","Longitude":-83.5364,"Latitude":41.6447}},{"type":"Feature","id":6482,"geometry":{"type":"Point","coordinates":[-83.5747219997359,41.6272220000125]},"properties":{"FID":6482,"OBJECTID":68578,"Plant_Code":59489,"Plant_Name":"Anthony Wayne Solar #1","Utility_ID":59244,"Utility_Na":"GEM Energy LLC","sector_nam":"IPP Non-CHP","Street_Add":"671 Spencer Street","City":"Toledo","County":"Lucas","State":"Ohio","Zip":43609,"PrimSource":"solar","source_des":"Solar = 1.7 MW","tech_desc":"Solar Photovoltaic","Install_MW":1.7,"Total_MW":1.7,"Bat_MW":0,"Bio_MW":0,"Coal_MW":0,"Geo_MW":0,"Hydro_MW":0,"HydroPS_MW":0,"NG_MW":0,"Nuclear_MW":0,"Crude_MW":0,"Solar_MW":1.7,"Wind_MW":0,"Other_MW":0,"Source":"EIA-860, EIA-860M and EIA-923","Period":"202502","Longitude":-83.574722,"Latitude":41.627222}},{"type":"Feature","id":11010,"geometry":{"type":"Point","coordinates":[-83.3776999998713,41.1717999998305]},"properties":{"FID":11010,"OBJECTID":72304,"Plant_Code":63920,"Plant_Name":"POET Biorefining - Fostoria","Utility_ID":63588,"Utility_Na":"Fostoria Ethanol","sector_nam":"Industrial CHP","Street_Add":"2111 Sandusky St.","City":"Fostoria","County":"Seneca","State":"Ohio","Zip":44830,"PrimSource":"natural gas","source_des":"Natural Gas = 3.5 MW","tech_desc":"Natural Gas Steam Turbine","Install_MW":3.5,"Total_MW":3.5,"Bat_MW":0,"Bio_MW":0,"Coal_MW":0,"Geo_MW":0,"Hydro_MW":0,"HydroPS_MW":0,"NG_MW":3.5,"Nuclear_MW":0,"Crude_MW":0,"Solar_MW":0,"Wind_MW":0,"Other_MW":0,"Source":"EIA-860, EIA-860M and EIA-923","Period":"202502","Longitude":-83.3777,"Latitude":41.1718}},{"type":"Feature","id":1161,"geometry":{"type":"Point","coordinates":[-83.3464000004267,41.8905999999444]},"properties":{"FID":1161,"OBJECTID":62852,"Plant_Code":1733,"Plant_Name":"Monroe (MI)","Utility_ID":5109,"Utility_Na":"DTE Electric Company","sector_nam":"Electric Utility","Street_Add":"3500 Front St","City":"Monroe","County":"Monroe","State":"Michigan","Zip":48161,"PrimSource":"coal","source_des":"Coal = 3066 MW, Petroleum = 14 MW","tech_desc":"Conventional Steam Coal; Petroleum Liquids;","Install_MW":3293.1,"Total_MW":3080,"Bat_MW":0,"Bio_MW":0,"Coal_MW":3066,"Geo_MW":0,"Hydro_MW":0,"HydroPS_MW":0,"NG_MW":0,"Nuclear_MW":0,"Crude_MW":14,"Solar_MW":0,"Wind_MW":0,"Other_MW":0,"Source":"EIA-860, EIA-860M and EIA-923","Period":"202502","Longitude":-83.3464,"Latitude":41.8906}},{"type":"Feature","id":2541,"geometry":{"type":"Point","coordinates":[-83.6401999995728,41.3883999999148]},"properties":{"FID":2541,"OBJECTID":64237,"Plant_Code":7783,"Plant_Name":"Bowling Green Peaking","Utility_ID":40577,"Utility_Na":"American Mun Power-Ohio, Inc","sector_nam":"Electric Utility","Street_Add":"811 E. Poe Rd.","City":"Bowling Green","County":"Wood","State":"Ohio","Zip":43402,"PrimSource":"natural gas","source_des":"Natural Gas = 29 MW","tech_desc":"Natural Gas Fired Combustion Turbine","Install_MW":32,"Total_MW":29,"Bat_MW":0,"Bio_MW":0,"Coal_MW":0,"Geo_MW":0,"Hydro_MW":0,"HydroPS_MW":0,"NG_MW":29,"Nuclear_MW":0,"Crude_MW":0,"Solar_MW":0,"Wind_MW":0,"Other_MW":0,"Source":"EIA-860, EIA-860M and EIA-923","Period":"202502","Longitude":-83.6402,"Latitude":41.3884}},{"type":"Feature","id":13215,"geometry":{"type":"Point","coordinates":[-83.6949999996134,41.5680000002008]},"properties":{"FID":13215,"OBJECTID":75311,"Plant_Code":68161,"Plant_Name":"Maumee Solar","Utility_ID":66611,"Utility_Na":"Maumee Solar, LLC","sector_nam":"IPP Non-CHP","Street_Add":"3939 Technology Dr","City":"Maumee","County":"Lucas","State":"Ohio","Zip":43537,"PrimSource":"solar","source_des":"Solar = 2.4 MW","tech_desc":"Solar Photovoltaic","Install_MW":2.4,"Total_MW":2.4,"Bat_MW":0,"Bio_MW":0,"Coal_MW":0,"Geo_MW":0,"Hydro_MW":0,"HydroPS_MW":0,"NG_MW":0,"Nuclear_MW":0,"Crude_MW":0,"Solar_MW":2.4,"Wind_MW":0,"Other_MW":0,"Source":"EIA-860, EIA-860M and EIA-923","Period":"202502","Longitude":-83.695,"Latitude":41.568}},{"type":"Feature","id":391,"geometry":{"type":"Point","coordinates":[-83.4377999999012,41.6917000000932]},"properties":{"FID":391,"OBJECTID":63287,"Plant_Code":2878,"Plant_Name":"FirstEnergy Bay Shore","Utility_ID":62031,"Utility_Na":"Walleye Power, LLC\r","sector_nam":"IPP CHP","Street_Add":"4701 Bay Shore Road","City":"Oregon","County":"Lucas","State":"Ohio","Zip":43616,"PrimSource":"petroleum","source_des":"Petroleum = 153.7 MW","tech_desc":"Petroleum Coke; Petroleum Liquids;","Install_MW":187,"Total_MW":153.7,"Bat_MW":0,"Bio_MW":0,"Coal_MW":0,"Geo_MW":0,"Hydro_MW":0,"HydroPS_MW":0,"NG_MW":0,"Nuclear_MW":0,"Crude_MW":153.7,"Solar_MW":0,"Wind_MW":0,"Other_MW":0,"Source":"EIA-860, EIA-860M and EIA-923","Period":"202502","Longitude":-83.4378,"Latitude":41.6917}},{"type":"Feature","id":12820,"geometry":{"type":"Point","coordinates":[-82.7089489997589,41.2442879999998]},"properties":{"FID":12820,"OBJECTID":74293,"Plant_Code":66434,"Plant_Name":"Monroeville RTO BTM","Utility_ID":40577,"Utility_Na":"American Mun Power-Ohio, Inc","sector_nam":"Electric Utility","Street_Add":"315 Monroe Street","City":"Monroeville","County":"Huron","State":"Ohio","Zip":44847,"PrimSource":"petroleum","source_des":"Petroleum = 2.7 MW","tech_desc":"Petroleum Liquids","Install_MW":2.7,"Total_MW":2.7,"Bat_MW":0,"Bio_MW":0,"Coal_MW":0,"Geo_MW":0,"Hydro_MW":0,"HydroPS_MW":0,"NG_MW":0,"Nuclear_MW":0,"Crude_MW":2.7,"Solar_MW":0,"Wind_MW":0,"Other_MW":0,"Source":"EIA-860, EIA-860M and EIA-923","Period":"202502","Longitude":-82.708949,"Latitude":41.244288}},{"type":"Feature","id":12199,"geometry":{"type":"Point","coordinates":[-83.4094899997607,41.0657100000311]},"properties":{"FID":12199,"OBJECTID":74694,"Plant_Code":67027,"Plant_Name":"Energy Developments, Hancock","Utility_ID":55858,"Utility_Na":"Energy Developments, Inc d/b/a EDL","sector_nam":"IPP Non-CHP","Street_Add":"3574 TR 142","City":"Findlay","County":"Hancock","State":"Ohio","Zip":45840,"PrimSource":"biomass","source_des":"Biomass = 3.2 MW","tech_desc":"Landfill Gas","Install_MW":3.2,"Total_MW":3.2,"Bat_MW":0,"Bio_MW":3.2,"Coal_MW":0,"Geo_MW":0,"Hydro_MW":0,"HydroPS_MW":0,"NG_MW":0,"Nuclear_MW":0,"Crude_MW":0,"Solar_MW":0,"Wind_MW":0,"Other_MW":0,"Source":"EIA-860, EIA-860M and EIA-923","Period":"202502","Longitude":-83.40949,"Latitude":41.06571}},{"type":"Feature","id":10742,"geometry":{"type":"Point","coordinates":[-83.5786540002947,41.5485029996916]},"properties":{"FID":10742,"OBJECTID":74038,"Plant_Code":66069,"Plant_Name":"IGS PCW1","Utility_ID":60025,"Utility_Na":"Greenbacker Renewable Energy Corporation","sector_nam":"IPP Non-CHP","Street_Add":"27400 Crossroads Parkway","City":"Rossford","County":"Wood","State":"Ohio","Zip":43460,"PrimSource":"solar","source_des":"Solar = 3.1 MW","tech_desc":"Solar Photovoltaic","Install_MW":3.1,"Total_MW":3.1,"Bat_MW":0,"Bio_MW":0,"Coal_MW":0,"Geo_MW":0,"Hydro_MW":0,"HydroPS_MW":0,"NG_MW":0,"Nuclear_MW":0,"Crude_MW":0,"Solar_MW":3.1,"Wind_MW":0,"Other_MW":0,"Source":"EIA-860, EIA-860M and EIA-923","Period":"202502","Longitude":-83.578654,"Latitude":41.548503}},{"type":"Feature","id":3766,"geometry":{"type":"Point","coordinates":[-83.1613879998037,41.3771159997358]},"properties":{"FID":3766,"OBJECTID":65862,"Plant_Code":55701,"Plant_Name":"Fremont Energy Center","Utility_ID":40577,"Utility_Na":"American Mun Power-Ohio, Inc","sector_nam":"Electric Utility","Street_Add":"1275 County Rd 138A","City":"Fremont","County":"Sandusky","State":"Ohio","Zip":43420,"PrimSource":"natural gas","source_des":"Natural Gas = 685.1 MW","tech_desc":"Natural Gas Fired Combined Cycle","Install_MW":739.5,"Total_MW":685.1,"Bat_MW":0,"Bio_MW":0,"Coal_MW":0,"Geo_MW":0,"Hydro_MW":0,"HydroPS_MW":0,"NG_MW":685.1,"Nuclear_MW":0,"Crude_MW":0,"Solar_MW":0,"Wind_MW":0,"Other_MW":0,"Source":"EIA-860, EIA-860M and EIA-923","Period":"202502","Longitude":-83.161388,"Latitude":41.377116}},{"type":"Feature","id":5632,"geometry":{"type":"Point","coordinates":[-82.6019999999463,41.3361999997416]},"properties":{"FID":5632,"OBJECTID":66790,"Plant_Code":57249,"Plant_Name":"Renewable Energy Services of Ohio","Utility_ID":55920,"Utility_Na":"Bio-Gas Technologies LTD","sector_nam":"IPP Non-CHP","Street_Add":"10215 Hoover Road","City":"Milan","County":"Erie","State":"Ohio","Zip":44846,"PrimSource":"biomass","source_des":"Biomass = 2.4 MW","tech_desc":"Landfill Gas","Install_MW":2.4,"Total_MW":2.4,"Bat_MW":0,"Bio_MW":2.4,"Coal_MW":0,"Geo_MW":0,"Hydro_MW":0,"HydroPS_MW":0,"NG_MW":0,"Nuclear_MW":0,"Crude_MW":0,"Solar_MW":0,"Wind_MW":0,"Other_MW":0,"Source":"EIA-860, EIA-860M and EIA-923","Period":"202502","Longitude":-82.602,"Latitude":41.3362}},{"type":"Feature","id":3952,"geometry":{"type":"Point","coordinates":[-83.3605999998045,41.5092000001351]},"properties":{"FID":3952,"OBJECTID":66048,"Plant_Code":56181,"Plant_Name":"Genoa Diesel Generating Station","Utility_ID":7100,"Utility_Na":"Village of Genoa - (OH)","sector_nam":"Electric Utility","Street_Add":"Industrial Park Road","City":"Genoa","County":"Ottawa","State":"Ohio","Zip":43430,"PrimSource":"petroleum","source_des":"Petroleum = 6 MW","tech_desc":"Petroleum Liquids","Install_MW":6,"Total_MW":6,"Bat_MW":0,"Bio_MW":0,"Coal_MW":0,"Geo_MW":0,"Hydro_MW":0,"HydroPS_MW":0,"NG_MW":0,"Nuclear_MW":0,"Crude_MW":6,"Solar_MW":0,"Wind_MW":0,"Other_MW":0,"Source":"EIA-860, EIA-860M and EIA-923","Period":"202502","Longitude":-83.3606,"Latitude":41.5092}},{"type":"Feature","id":2223,"geometry":{"type":"Point","coordinates":[-83.5042000000029,41.6324999999153]},"properties":{"FID":2223,"OBJECTID":65118,"Plant_Code":50965,"Plant_Name":"Toledo Ref Power Recovery Train","Utility_ID":18323,"Utility_Na":"Toledo Refining Company","sector_nam":"Industrial CHP","Street_Add":"1819 Woodville Rd.","City":"Oregon","County":"Lucas","State":"Ohio","Zip":43616,"PrimSource":"petroleum","source_des":"Petroleum = 6 MW","tech_desc":"Petroleum Coke","Install_MW":6,"Total_MW":6,"Bat_MW":0,"Bio_MW":0,"Coal_MW":0,"Geo_MW":0,"Hydro_MW":0,"HydroPS_MW":0,"NG_MW":0,"Nuclear_MW":0,"Crude_MW":6,"Solar_MW":0,"Wind_MW":0,"Other_MW":0,"Source":"EIA-860, EIA-860M and EIA-923","Period":"202502","Longitude":-83.5042,"Latitude":41.6325}},{"type":"Feature","id":9940,"geometry":{"type":"Point","coordinates":[-82.7117849999755,41.2301420002654]},"properties":{"FID":9940,"OBJECTID":71690,"Plant_Code":63181,"Plant_Name":"Monroeville Solar","Utility_ID":62923,"Utility_Na":"Solar Planet Power","sector_nam":"IPP Non-CHP","Street_Add":"3412 Farr Rd","City":"Monroeville","County":"Huron","State":"Ohio","Zip":44847,"PrimSource":"solar","source_des":"Solar = 3 MW","tech_desc":"Solar Photovoltaic","Install_MW":3.2,"Total_MW":3,"Bat_MW":0,"Bio_MW":0,"Coal_MW":0,"Geo_MW":0,"Hydro_MW":0,"HydroPS_MW":0,"NG_MW":0,"Nuclear_MW":0,"Crude_MW":0,"Solar_MW":3,"Wind_MW":0,"Other_MW":0,"Source":"EIA-860, EIA-860M and EIA-923","Period":"202502","Longitude":-82.711785,"Latitude":41.230142}},{"type":"Feature","id":7676,"geometry":{"type":"Point","coordinates":[-82.9843309996365,41.3193509999094]},"properties":{"FID":7676,"OBJECTID":69772,"Plant_Code":60923,"Plant_Name":"Clyde Solar Array","Utility_ID":60571,"Utility_Na":"AEP Onsite Partners, LLC","sector_nam":"IPP Non-CHP","Street_Add":"749 West McPherson Hwy","City":"Clyde","County":"Sandusky","State":"Ohio","Zip":43410,"PrimSource":"solar","source_des":"Solar = 2.8 MW","tech_desc":"Solar Photovoltaic","Install_MW":2.8,"Total_MW":2.8,"Bat_MW":0,"Bio_MW":0,"Coal_MW":0,"Geo_MW":0,"Hydro_MW":0,"HydroPS_MW":0,"NG_MW":0,"Nuclear_MW":0,"Crude_MW":0,"Solar_MW":2.8,"Wind_MW":0,"Other_MW":0,"Source":"EIA-860, EIA-860M and EIA-923","Period":"202502","Longitude":-82.984331,"Latitude":41.319351}},{"type":"Feature","id":7427,"geometry":{"type":"Point","coordinates":[-83.5820000001492,41.3960000003242]},"properties":{"FID":7427,"OBJECTID":69522,"Plant_Code":60622,"Plant_Name":"DG AMP Solar Bowling Green","Utility_ID":60370,"Utility_Na":"DG AMP Solar, LLC","sector_nam":"IPP Non-CHP","Street_Add":"16520 Carter Rd.","City":"Bowling Green","County":"Wood","State":"Ohio","Zip":43402,"PrimSource":"solar","source_des":"Solar = 20 MW","tech_desc":"Solar Photovoltaic","Install_MW":20,"Total_MW":20,"Bat_MW":0,"Bio_MW":0,"Coal_MW":0,"Geo_MW":0,"Hydro_MW":0,"HydroPS_MW":0,"NG_MW":0,"Nuclear_MW":0,"Crude_MW":0,"Solar_MW":20,"Wind_MW":0,"Other_MW":0,"Source":"EIA-860, EIA-860M and EIA-923","Period":"202502","Longitude":-83.582,"Latitude":41.396}},{"type":"Feature","id":12898,"geometry":{"type":"Point","coordinates":[-83.1873899998072,42.1230490001473]},"properties":{"FID":12898,"OBJECTID":75170,"Plant_Code":67758,"Plant_Name":"Slocum Energy Storage","Utility_ID":5109,"Utility_Na":"DTE Electric Company","sector_nam":"Electric Utility","Street_Add":"4776 W Jefferson Ave","City":"Trenton","County":"Wayne","State":"Michigan","Zip":48183,"PrimSource":"batteries","source_des":"Battery = 14 MW","tech_desc":"Batteries","Install_MW":14,"Total_MW":14,"Bat_MW":14,"Bio_MW":0,"Coal_MW":0,"Geo_MW":0,"Hydro_MW":0,"HydroPS_MW":0,"NG_MW":0,"Nuclear_MW":0,"Crude_MW":0,"Solar_MW":0,"Wind_MW":0,"Other_MW":0,"Source":"EIA-860, EIA-860M and EIA-923","Period":"202502","Longitude":-83.18739,"Latitude":42.123049}},{"type":"Feature","id":6918,"geometry":{"type":"Point","coordinates":[-83.6443940000723,41.1012190000074]},"properties":{"FID":6918,"OBJECTID":69014,"Plant_Code":60015,"Plant_Name":"Findlay Wind Farm","Utility_ID":59760,"Utility_Na":"Findlay Wind Farm","sector_nam":"Industrial Non-CHP","Street_Add":"12367 Township Road 215","City":"Findlay","County":"Hancock","State":"Ohio","Zip":45840,"PrimSource":"wind","source_des":"Wind = 3 MW","tech_desc":"Onshore Wind Turbine","Install_MW":3,"Total_MW":3,"Bat_MW":0,"Bio_MW":0,"Coal_MW":0,"Geo_MW":0,"Hydro_MW":0,"HydroPS_MW":0,"NG_MW":0,"Nuclear_MW":0,"Crude_MW":0,"Solar_MW":0,"Wind_MW":3,"Other_MW":0,"Source":"EIA-860, EIA-860M and EIA-923","Period":"202502","Longitude":-83.644394,"Latitude":41.101219}},{"type":"Feature","id":1159,"geometry":{"type":"Point","coordinates":[-83.2580999998612,41.9630999997212]},"properties":{"FID":1159,"OBJECTID":62850,"Plant_Code":1729,"Plant_Name":"Fermi","Utility_ID":5109,"Utility_Na":"DTE Electric Company","sector_nam":"Electric Utility","Street_Add":"6400 N Dixie Hwy","City":"Frenchtown Twp","County":"Monroe","State":"Michigan","Zip":48166,"PrimSource":"nuclear","source_des":"Nuclear = 1141 MW, Petroleum = 51 MW","tech_desc":"Nuclear; Petroleum Liquids;","Install_MW":1281,"Total_MW":1192,"Bat_MW":0,"Bio_MW":0,"Coal_MW":0,"Geo_MW":0,"Hydro_MW":0,"HydroPS_MW":0,"NG_MW":0,"Nuclear_MW":1141,"Crude_MW":51,"Solar_MW":0,"Wind_MW":0,"Other_MW":0,"Source":"EIA-860, EIA-860M and EIA-923","Period":"202502","Longitude":-83.2581,"Latitude":41.9631}},{"type":"Feature","id":5086,"geometry":{"type":"Point","coordinates":[-83.4847220003773,41.6883329998619]},"properties":{"FID":5086,"OBJECTID":67582,"Plant_Code":58269,"Plant_Name":"Bay View Backup Power Facility","Utility_ID":58240,"Utility_Na":"COT/Division of Water Reclamation","sector_nam":"Electric Utility","Street_Add":"3900 N Summit Street, Bldg #1","City":"Toledo","County":"Lucas","State":"Ohio","Zip":43611,"PrimSource":"natural gas","source_des":"Natural Gas = 10 MW, Petroleum = 2 MW","tech_desc":"Natural Gas Internal Combustion Engine; Petroleum Liquids;","Install_MW":12,"Total_MW":12,"Bat_MW":0,"Bio_MW":0,"Coal_MW":0,"Geo_MW":0,"Hydro_MW":0,"HydroPS_MW":0,"NG_MW":10,"Nuclear_MW":0,"Crude_MW":2,"Solar_MW":0,"Wind_MW":0,"Other_MW":0,"Source":"EIA-860, EIA-860M and EIA-923","Period":"202502","Longitude":-83.484722,"Latitude":41.688333}},{"type":"Feature","id":8106,"geometry":{"type":"Point","coordinates":[-83.5239999998439,41.7529999999541]},"properties":{"FID":8106,"OBJECTID":71802,"Plant_Code":63322,"Plant_Name":"Temperance Solar, LLC","Utility_ID":62759,"Utility_Na":"National Grid Renewables","sector_nam":"IPP Non-CHP","Street_Add":"820 East Sterns Road","City":"Erie","County":"Monroe","State":"Michigan","Zip":48133,"PrimSource":"solar","source_des":"Solar = 20 MW","tech_desc":"Solar Photovoltaic","Install_MW":20,"Total_MW":20,"Bat_MW":0,"Bio_MW":0,"Coal_MW":0,"Geo_MW":0,"Hydro_MW":0,"HydroPS_MW":0,"NG_MW":0,"Nuclear_MW":0,"Crude_MW":0,"Solar_MW":20,"Wind_MW":0,"Other_MW":0,"Source":"EIA-860, EIA-860M and EIA-923","Period":"202502","Longitude":-83.524,"Latitude":41.753}},{"type":"Feature","id":3243,"geometry":{"type":"Point","coordinates":[-83.4988449997622,42.1056689997695]},"properties":{"FID":3243,"OBJECTID":65339,"Plant_Code":54536,"Plant_Name":"Sumpter Energy Associates","Utility_ID":57249,"Utility_Na":"NextEra Renewable Fuels, LLC","sector_nam":"IPP Non-CHP","Street_Add":"26981 Elwell Road","City":"Belleville","County":"Wayne","State":"Michigan","Zip":48111,"PrimSource":"biomass","source_des":"Biomass = 11.2 MW","tech_desc":"Landfill Gas","Install_MW":11.2,"Total_MW":11.2,"Bat_MW":0,"Bio_MW":11.2,"Coal_MW":0,"Geo_MW":0,"Hydro_MW":0,"HydroPS_MW":0,"NG_MW":0,"Nuclear_MW":0,"Crude_MW":0,"Solar_MW":0,"Wind_MW":0,"Other_MW":0,"Source":"EIA-860, EIA-860M and EIA-923","Period":"202502","Longitude":-83.498845,"Latitude":42.105669}},{"type":"Feature","id":12248,"geometry":{"type":"Point","coordinates":[-83.5544370003714,41.0604769997006]},"properties":{"FID":12248,"OBJECTID":74742,"Plant_Code":67084,"Plant_Name":"Buckeye Power Inc.","Utility_ID":65988,"Utility_Na":"Township Road 215 Solar Project 2021, LLC","sector_nam":"IPP Non-CHP","Street_Add":"US-224 & Township Rd 215","City":"Marion","County":"Marion","State":"Ohio","Zip":45840,"PrimSource":"solar","source_des":"Solar = 2 MW","tech_desc":"Solar Photovoltaic","Install_MW":2,"Total_MW":2,"Bat_MW":0,"Bio_MW":0,"Coal_MW":0,"Geo_MW":0,"Hydro_MW":0,"HydroPS_MW":0,"NG_MW":0,"Nuclear_MW":0,"Crude_MW":0,"Solar_MW":2,"Wind_MW":0,"Other_MW":0,"Source":"EIA-860, EIA-860M and EIA-923","Period":"202502","Longitude":-83.554437,"Latitude":41.060477}},{"type":"Feature","id":11017,"geometry":{"type":"Point","coordinates":[-83.9706200000407,41.1205499998848]},"properties":{"FID":11017,"OBJECTID":72311,"Plant_Code":63927,"Plant_Name":"POET Biorefining - Leipsic, LLC","Utility_ID":63594,"Utility_Na":"POET Biorefining - Leipsic, LLC","sector_nam":"Industrial CHP","Street_Add":"3875 Russell Avenue","City":"Leipsic","County":"Putnam","State":"Ohio","Zip":45856,"PrimSource":"natural gas","source_des":"Natural Gas = 3.5 MW","tech_desc":"Natural Gas Steam Turbine","Install_MW":3.5,"Total_MW":3.5,"Bat_MW":0,"Bio_MW":0,"Coal_MW":0,"Geo_MW":0,"Hydro_MW":0,"HydroPS_MW":0,"NG_MW":3.5,"Nuclear_MW":0,"Crude_MW":0,"Solar_MW":0,"Wind_MW":0,"Other_MW":0,"Source":"EIA-860, EIA-860M and EIA-923","Period":"202502","Longitude":-83.97062,"Latitude":41.12055}},{"type":"Feature","id":3392,"geometry":{"type":"Point","coordinates":[-83.9928600002631,41.8909680001773]},"properties":{"FID":3392,"OBJECTID":65487,"Plant_Code":54903,"Plant_Name":"Adrian Energy Associates LLC","Utility_ID":57249,"Utility_Na":"NextEra Renewable Fuels, LLC","sector_nam":"IPP Non-CHP","Street_Add":"1900 Ogden Highway","City":"Adrian","County":"Lenawee","State":"Michigan","Zip":49221,"PrimSource":"biomass","source_des":"Biomass = 2.4 MW","tech_desc":"Landfill Gas","Install_MW":2.4,"Total_MW":2.4,"Bat_MW":0,"Bio_MW":2.4,"Coal_MW":0,"Geo_MW":0,"Hydro_MW":0,"HydroPS_MW":0,"NG_MW":0,"Nuclear_MW":0,"Crude_MW":0,"Solar_MW":0,"Wind_MW":0,"Other_MW":0,"Source":"EIA-860, EIA-860M and EIA-923","Period":"202502","Longitude":-83.99286,"Latitude":41.890968}},{"type":"Feature","id":1588,"geometry":{"type":"Point","coordinates":[-83.0861000000089,41.596699999857]},"properties":{"FID":1588,"OBJECTID":63809,"Plant_Code":6149,"Plant_Name":"Davis Besse","Utility_ID":64225,"Utility_Na":"Energy Harbor Nuclear Generation LLC","sector_nam":"IPP Non-CHP","Street_Add":"5501 N State Route 2","City":"Oak Harbor","County":"Ottawa","State":"Ohio","Zip":43449,"PrimSource":"nuclear","source_des":"Nuclear = 894 MW","tech_desc":"Nuclear","Install_MW":925.2,"Total_MW":894,"Bat_MW":0,"Bio_MW":0,"Coal_MW":0,"Geo_MW":0,"Hydro_MW":0,"HydroPS_MW":0,"NG_MW":0,"Nuclear_MW":894,"Crude_MW":0,"Solar_MW":0,"Wind_MW":0,"Other_MW":0,"Source":"EIA-860, EIA-860M and EIA-923","Period":"202502","Longitude":-83.0861,"Latitude":41.5967}},{"type":"Feature","id":5083,"geometry":{"type":"Point","coordinates":[-83.4847220003773,41.6883329998619]},"properties":{"FID":5083,"OBJECTID":67579,"Plant_Code":58263,"Plant_Name":"Bay View Cogeneration Facility","Utility_ID":58240,"Utility_Na":"COT/Division of Water Reclamation","sector_nam":"Electric Utility","Street_Add":"3900 N Summit Street, Bldg 1","City":"Toledo","County":"Lucas","State":"Ohio","Zip":43611,"PrimSource":"biomass","source_des":"Biomass = 8.4 MW","tech_desc":"Landfill Gas","Install_MW":12,"Total_MW":8.4,"Bat_MW":0,"Bio_MW":8.4,"Coal_MW":0,"Geo_MW":0,"Hydro_MW":0,"HydroPS_MW":0,"NG_MW":0,"Nuclear_MW":0,"Crude_MW":0,"Solar_MW":0,"Wind_MW":0,"Other_MW":0,"Source":"EIA-860, EIA-860M and EIA-923","Period":"202502","Longitude":-83.484722,"Latitude":41.688333}},{"type":"Feature","id":10024,"geometry":{"type":"Point","coordinates":[-82.9652610004398,41.2932939999185]},"properties":{"FID":10024,"OBJECTID":72520,"Plant_Code":64157,"Plant_Name":"Clyde Peaking Engine","Utility_ID":60571,"Utility_Na":"AEP Onsite Partners, LLC","sector_nam":"IPP Non-CHP","Street_Add":"431 Premier Drive","City":"Clyde","County":"Sandusky","State":"Ohio","Zip":43410,"PrimSource":"natural gas","source_des":"Natural Gas = 10 MW","tech_desc":"Natural Gas Internal Combustion Engine","Install_MW":10,"Total_MW":10,"Bat_MW":0,"Bio_MW":0,"Coal_MW":0,"Geo_MW":0,"Hydro_MW":0,"HydroPS_MW":0,"NG_MW":10,"Nuclear_MW":0,"Crude_MW":0,"Solar_MW":0,"Wind_MW":0,"Other_MW":0,"Source":"EIA-860, EIA-860M and EIA-923","Period":"202502","Longitude":-82.965261,"Latitude":41.293294}}]}